{
  "type": "FeatureCollection",
  "features": [
    {
      "type": "Feature",
      "properties": {
        "norad_id": 30817,
        "name": "FENGYUN 1C DEB",
        "group": "fengyun-1c-debris",
        "lat": -41.03069929013906,
        "lon": 160.72101425575963,
        "alt_km": 856.5805599124878,
        "timestamp": "2025-12-24T16:52:41.810968+00:00",
        "meta_object_name": "FENGYUN 1C DEB",
        "meta_object_id": "1999-025AVB",
        "meta_epoch": "2025-12-23T22:40:45.575616",
        "meta_mean_motion": 14.00727006,
        "meta_eccentricity": 0.005764,
        "meta_inclination": 98.7855,
        "meta_ra_of_asc_node": 347.7261,
        "meta_arg_of_pericenter": 212.9693,
        "meta_mean_anomaly": 146.7873,
        "meta_ephemeris_type": 0,
        "meta_classification_type": "U",
        "meta_norad_cat_id": 30817,
        "meta_element_set_no": 999,
        "meta_rev_at_epoch": 96066,
        "meta_bstar": 0.00015189,
        "meta_mean_motion_dot": 1.87e-06,
        "meta_mean_motion_ddot": 0,
        "tle_line1": "1 30817U 99025AVB 25357.94497194  .00000187  00000+0  15189-3 0  9995",
        "tle_line2": "2 30817  98.7855 347.7261 0057640 212.9693 146.7873 14.00727006960667"
      },
      "geometry": {
        "type": "Point",
        "coordinates": [
          160.72101425575963,
          -41.03069929013906
        ]
      }
    },
    {
      "type": "Feature",
      "properties": {
        "norad_id": 30820,
        "name": "FENGYUN 1C DEB",
        "group": "fengyun-1c-debris",
        "lat": -74.99374838901399,
        "lon": -119.9227173301413,
        "alt_km": 836.4676874015177,
        "timestamp": "2025-12-24T16:52:41.810979+00:00",
        "meta_object_name": "FENGYUN 1C DEB",
        "meta_object_id": "1999-025AVE",
        "meta_epoch": "2025-12-23T06:09:02.502144",
        "meta_mean_motion": 14.21479107,
        "meta_eccentricity": 0.00520288,
        "meta_inclination": 98.676,
        "meta_ra_of_asc_node": 93.3776,
        "meta_arg_of_pericenter": 157.8998,
        "meta_mean_anomaly": 258.6772,
        "meta_ephemeris_type": 0,
        "meta_classification_type": "U",
        "meta_norad_cat_id": 30820,
        "meta_element_set_no": 999,
        "meta_rev_at_epoch": 96573,
        "meta_bstar": 0.0018392724,
        "meta_mean_motion_dot": 4.038e-05,
        "meta_mean_motion_ddot": 0,
        "tle_line1": "1 30820U 99025AVE 25357.25627896  .00004038  00000+0  18393-2 0  9995",
        "tle_line2": "2 30820  98.6760  93.3776 0052028 157.8998 258.6772 14.21479107965733"
      },
      "geometry": {
        "type": "Point",
        "coordinates": [
          -119.9227173301413,
          -74.99374838901399
        ]
      }
    },
    {
      "type": "Feature",
      "properties": {
        "norad_id": 30821,
        "name": "FENGYUN 1C DEB",
        "group": "fengyun-1c-debris",
        "lat": 77.96634713771873,
        "lon": 93.44385296754002,
        "alt_km": 716.5944449572244,
        "timestamp": "2025-12-24T16:52:41.810989+00:00",
        "meta_object_name": "FENGYUN 1C DEB",
        "meta_object_id": "1999-025AVF",
        "meta_epoch": "2025-12-22T15:05:10.178592",
        "meta_mean_motion": 14.49720433,
        "meta_eccentricity": 0.0086666,
        "meta_inclination": 99.1046,
        "meta_ra_of_asc_node": 139.9918,
        "meta_arg_of_pericenter": 176.3992,
        "meta_mean_anomaly": 245.1641,
        "meta_ephemeris_type": 0,
        "meta_classification_type": "U",
        "meta_norad_cat_id": 30821,
        "meta_element_set_no": 999,
        "meta_rev_at_epoch": 98932,
        "meta_bstar": 0.00077555632,
        "meta_mean_motion_dot": 3.078e-05,
        "meta_mean_motion_ddot": 0,
        "tle_line1": "1 30821U 99025AVF 25356.62859003  .00003078  00000+0  77556-3 0  9993",
        "tle_line2": "2 30821  99.1046 139.9918 0086666 176.3992 245.1641 14.49720433989325"
      },
      "geometry": {
        "type": "Point",
        "coordinates": [
          93.44385296754002,
          77.96634713771873
        ]
      }
    },
    {
      "type": "Feature",
      "properties": {
        "norad_id": 30822,
        "name": "FENGYUN 1C DEB",
        "group": "fengyun-1c-debris",
        "lat": 32.18013433722588,
        "lon": -148.00374830988457,
        "alt_km": 864.9691267456737,
        "timestamp": "2025-12-24T16:52:41.810999+00:00",
        "meta_object_name": "FENGYUN 1C DEB",
        "meta_object_id": "1999-025AVG",
        "meta_epoch": "2025-12-24T01:00:04.805856",
        "meta_mean_motion": 14.1135635,
        "meta_eccentricity": 0.00733036,
        "meta_inclination": 98.7343,
        "meta_ra_of_asc_node": 25.8014,
        "meta_arg_of_pericenter": 252.8678,
        "meta_mean_anomaly": 135.9237,
        "meta_ephemeris_type": 0,
        "meta_classification_type": "U",
        "meta_norad_cat_id": 30822,
        "meta_element_set_no": 999,
        "meta_rev_at_epoch": 96861,
        "meta_bstar": 0.00031294892,
        "meta_mean_motion_dot": 5.37e-06,
        "meta_mean_motion_ddot": 0,
        "tle_line1": "1 30822U 99025AVG 25358.04172229  .00000537  00000+0  31295-3 0  9997",
        "tle_line2": "2 30822  98.7343  25.8014 0073303 252.8678 135.9237 14.11356350968614"
      },
      "geometry": {
        "type": "Point",
        "coordinates": [
          -148.00374830988457,
          32.18013433722588
        ]
      }
    },
    {
      "type": "Feature",
      "properties": {
        "norad_id": 30823,
        "name": "FENGYUN 1C DEB",
        "group": "fengyun-1c-debris",
        "lat": -45.37683255235066,
        "lon": -49.726836106437894,
        "alt_km": 988.6955286008169,
        "timestamp": "2025-12-24T16:52:41.811010+00:00",
        "meta_object_name": "FENGYUN 1C DEB",
        "meta_object_id": "1999-025AVH",
        "meta_epoch": "2025-12-19T21:48:58.565088",
        "meta_mean_motion": 14.02564136,
        "meta_eccentricity": 0.01342337,
        "meta_inclination": 98.7634,
        "meta_ra_of_asc_node": 134.6515,
        "meta_arg_of_pericenter": 64.6202,
        "meta_mean_anomaly": 87.319,
        "meta_ephemeris_type": 0,
        "meta_classification_type": "U",
        "meta_norad_cat_id": 30823,
        "meta_element_set_no": 999,
        "meta_rev_at_epoch": 96134,
        "meta_bstar": 0.00016735994,
        "meta_mean_motion_dot": 2.38e-06,
        "meta_mean_motion_ddot": 0,
        "tle_line1": "1 30823U 99025AVH 25353.90901117  .00000238  00000+0  16736-3 0  9995",
        "tle_line2": "2 30823  98.7634 134.6515 0134233  64.6202  87.3190 14.02564136961349"
      },
      "geometry": {
        "type": "Point",
        "coordinates": [
          -49.726836106437894,
          -45.37683255235066
        ]
      }
    },
    {
      "type": "Feature",
      "properties": {
        "norad_id": 30826,
        "name": "FENGYUN 1C DEB",
        "group": "fengyun-1c-debris",
        "lat": 2.504712329599025,
        "lon": 15.397439633541996,
        "alt_km": 703.3055622985621,
        "timestamp": "2025-12-24T16:52:41.811021+00:00",
        "meta_object_name": "FENGYUN 1C DEB",
        "meta_object_id": "1999-025AVL",
        "meta_epoch": "2025-12-24T00:34:49.139040",
        "meta_mean_motion": 14.82336846,
        "meta_eccentricity": 0.01445927,
        "meta_inclination": 98.8661,
        "meta_ra_of_asc_node": 194.2541,
        "meta_arg_of_pericenter": 321.0518,
        "meta_mean_anomaly": 195.6157,
        "meta_ephemeris_type": 0,
        "meta_classification_type": "U",
        "meta_norad_cat_id": 30826,
        "meta_element_set_no": 999,
        "meta_rev_at_epoch": 453,
        "meta_bstar": 0.00056329676,
        "meta_mean_motion_dot": 5.334e-05,
        "meta_mean_motion_ddot": 0,
        "tle_line1": "1 30826U 99025AVL 25358.02417985  .00005334  00000+0  56330-3 0  9997",
        "tle_line2": "2 30826  98.8661 194.2541 0144592 321.0518 195.6157 14.82336846  4531"
      },
      "geometry": {
        "type": "Point",
        "coordinates": [
          15.397439633541996,
          2.504712329599025
        ]
      }
    },
    {
      "type": "Feature",
      "properties": {
        "norad_id": 30827,
        "name": "FENGYUN 1C DEB",
        "group": "fengyun-1c-debris",
        "lat": -40.946169135963046,
        "lon": 156.7759285191386,
        "alt_km": 765.3324853366112,
        "timestamp": "2025-12-24T16:52:41.811031+00:00",
        "meta_object_name": "FENGYUN 1C DEB",
        "meta_object_id": "1999-025AVM",
        "meta_epoch": "2025-12-22T05:24:17.025120",
        "meta_mean_motion": 14.37918372,
        "meta_eccentricity": 0.00439891,
        "meta_inclination": 99.0037,
        "meta_ra_of_asc_node": 342.0879,
        "meta_arg_of_pericenter": 150.3136,
        "meta_mean_anomaly": 210.056,
        "meta_ephemeris_type": 0,
        "meta_classification_type": "U",
        "meta_norad_cat_id": 30827,
        "meta_element_set_no": 999,
        "meta_rev_at_epoch": 96685,
        "meta_bstar": 0.0026816406,
        "meta_mean_motion_dot": 8.15e-05,
        "meta_mean_motion_ddot": 0,
        "tle_line1": "1 30827U 99025AVM 25356.22519705  .00008150  00000+0  26816-2 0  9995",
        "tle_line2": "2 30827  99.0037 342.0879 0043989 150.3136 210.0560 14.37918372966858"
      },
      "geometry": {
        "type": "Point",
        "coordinates": [
          156.7759285191386,
          -40.946169135963046
        ]
      }
    }
  ]
}